{"fetched_at":"2026-03-30T06:02:59Z","count":15439,"tles":[{"name":"STARLINK-4644","line1":"1 53719U 22107V   26087.86123879  .00000760  00000+0  65833-4 0  9995","line2":"2 53719  53.2166 137.6799 0001266  86.8566 273.2571 15.08844910197730","category":"Starlink"}]}