{
  "norad_id": 53719,
  "name": "STARLINK-4644",
  "history": [
    {
      "epoch": "2026-03-28T20:40:11.031456",
      "apogee_km": 540.6043903922864,
      "perigee_km": 538.8523718058686,
      "latitude_deg": 52.75381531143457,
      "longitude_deg": -5.421076160157099,
      "semi_major_axis_km": 6917.865381099077,
      "eccentricity": 0.00012663,
      "inclination_deg": 53.2166,
      "raan_deg": 137.6799,
      "arg_perigee_deg": 86.8566,
      "mean_anomaly_deg": 273.2571,
      "mean_motion_rev_day": 15.0884491
    }
  ]
}